name,url,address,lat,lng
109 Doctors,/doctors/gp/109-doctors/,"109 Queen Street, Auckland Central, Auckland",-36.8462319,174.7659345
168 â—‹ Medical Centre,/doctors/gp/168-medical-centre/,"170 Sandringham Road, Sandringham, Auckland",-36.8779918,174.7410221
AUT Health/Medical Centre,/doctors/gp/aut-health-medical-centre/,,,
Alberton Medical Practice,/doctors/gp/alberton-medical-practice/,"230 Mount Albert Road, Sandringham, Auckland",-36.895866,174.73187689999997
All Care Family Medical Centre - Ponsonby,/doctors/gp/all-care-family-medical-centre-ponsonby-1/,All Care Family Medical Centre - Ponsonby,-36.8517649,174.7452287
Aotea Health,/doctors/gp/aotea-health/,,,
Auckland Central Medical & Health Centre,/doctors/gp/auckland-central-medical-health-centre/,"28 College Hill, Freemans Bay, Auckland",-36.8488058,174.74905749999994
Auckland City Doctors,/doctors/gp/auckland-city-doctors/,"415 Queen Street, Auckland Central, Auckland",-36.85702749999999,174.7615813
Auckland Family Medical Centre,/doctors/gp/auckland-family-medical-centre/,"94 Remuera Road, Remuera, Auckland",-36.8729204,174.7815174
Auckland Integrative Medical Centre,/doctors/gp/auckland-integrative-medical-centre/,"820 Mount Eden Road, Mount Eden, Auckland",-36.898148,174.7577248
Auckland Travel Clinic,/doctors/gp/auckland-travel-clinic/,"17 Emily Place, Auckland Central, Auckland",-36.8460912,174.7706206
Avondale Family Doctor,/doctors/gp/avondale-family-doctor/,"63 Rosebank Road, Avondale, Auckland",-36.8943755,174.6970595
Avondale Family Health Centre,/doctors/gp/avondale-family-health-centre/,"1784 Great North Road, Avondale",-36.891718,174.6962566
Avondale Health Centre,/doctors/gp/avondale-health-centre/,"39 Layard Street, Avondale, Auckland",-36.8981419,174.69890799999996
Avondale Medical Centre,/doctors/gp/avondale-medical-centre/,"256 Rosebank Road, Avondale, Auckland",-36.8857956,174.6835997
Balmoral Doctors,/doctors/gp/balmoral-doctors/,"502 Dominion Road, Mount Eden, Auckland",-36.8844868,174.7486438
Bayside Medical Practice,/doctors/gp/bayside-medical-practice/,"17 Patteson Avenue, Mission Bay, Auckland",-36.849545,174.8310685
Blockhouse Bay Medical Centre,/doctors/gp/blockhouse-bay-medical-centre/,"503 Blockhouse Bay Road, Blockhouse Bay, Auckland",-36.9223484,174.7008562
Cairnhill Health Centre,/doctors/gp/cairnhill-health-centre/,"95 Mountain Road, Epsom, Auckland",-36.87297,174.7685275
CityMed Doctors Ltd,/doctors/gp/citymed-doctors-ltd/,"Quay West Building, Auckland Central",-36.8448541,174.7654108
College Hill Doctors,/doctors/gp/college-hill-doctors/,"46 College Hill, Freemans Bay, Auckland",-36.8486298,174.7477917
Cornwall Medical Centre,/doctors/gp/cornwall-medical-centre/,"790 Manukau Road, Royal Oak, Auckland",-36.9115481,174.77625250000006
Doctors at Kingsland,/doctors/gp/doctors-at-kingsland/,"491A New North Road, Kingsland, Auckland",-36.87193934995948,174.7440665960312
Doctors on Jervois,/doctors/gp/doctors-on-jervois/,Doctors on Jervois,-36.8458991,174.7413596
Dominion Medical Centre,/doctors/gp/dominion-medical-centre-1/,"349 Mount Albert Road, Mount Roskill, Auckland",-36.903714,174.7400248
Dominion Road Surgery,/doctors/gp/dominion-road-surgery/,"123D Dominion Road, Mount Eden, Auckland",-36.8725822,174.7518855
Donovan Street Medical Centre,/doctors/gp/donovan-street-medical-centre-1/,Donovan Street Medical Centre,-36.9224204,174.7017782
Dr De Lacey Surgery,/doctors/gp/dr-de-lacey-surgery/,"17 Elstree Avenue, Glen Innes, Auckland",-36.8714668,174.86529340000004
Dr Nicholas Cooper,/doctors/gp/dr-nicholas-cooper/,"48 The Drive, Epsom, Auckland",-36.8913969,174.77077050000003
Dr Zhuang & Wah Surgery,/doctors/gp/dr-zhuang-wah-surgery/,"5/283 Ponsonby Road, Ponsonby, Auckland",-36.8482585,174.7443102
East Tamaki Healthcare (ETHC) - Glen Innes,/doctors/gp/east-tamaki-healthcare-ethc-glen-innes-1/,East Tamaki Healthcare (ETHC) Glen Innes,-36.8788902,174.8561936
East Tamaki Healthcare (ETHC) - Otahuhu,/doctors/gp/east-tamaki-healthcare-ethc-otahuhu/,"15-23 Station Road, Otahuhu, Auckland",-36.9426401,174.8404322
East Tamaki Healthcare (ETHC) - Sandringham Health Centre,/doctors/gp/east-tamaki-healthcare-ethc-sandringham-health/,"546 Sandringham Road, Sandringham, Auckland",-36.8918008,174.7366828
East Tamaki Healthcare (ETHC) - Stoddard Road,/doctors/gp/east-tamaki-healthcare-ethc-stoddard-road/,"20 Stoddard Road, Mount Roskill, Auckland",-36.9074859,174.73432230000003
East Tamaki Healthcare (ETHC) - Sylvia Park,/doctors/gp/east-tamaki-healthcare-ethc-sylvia-park/,Sylvia Park Shopping Centre,-36.9135005,174.8407995
EastMed Doctors,/doctors/gp/eastmed-doctors/,"eastMED Integrated Medical Centre, St Heliers",-36.8621229,174.8588211
Eden-Epsom Medical Centre,/doctors/gp/eden-epsom-medical-centre/,"475A Manukau Road, Epsom, Auckland",-36.8943762,174.7738878
Ellerslie Medical Centre,/doctors/gp/ellerslie-medical-centre/,"Cnr Robert & Morrin Streets, Ellerslie",-36.8930508,174.8081602
Epsom Family Health Centre,/doctors/gp/epsom-family-health-centre/,"691 Manukau Road, Royal Oak, Auckland",-36.9104783,174.77481910000006
Epsom Medical Care,/doctors/gp/epsom-medical-care/,"272 Manukau Road, Epsom, Auckland",-36.8862775,174.7757908
Epsom Medical Centre,/doctors/gp/epsom-medical-centre/,"102 Great South Road, Epsom, Auckland",-36.8796297,174.78300579999996
Four Kauri Family Medical Centre,/doctors/gp/four-kauri-family-medical-centre/,"743 New North Road, Mount Albert, Auckland",-36.8784863,174.72632999999996
Freemans Bay Medical Centre,/doctors/gp/freemans-bay-medical-centre/,"100 Wellington Street, Freemans Bay, Auckland",-36.8520951,174.7510544
Gabriel Medical Practice,/doctors/gp/gabriel-medical-practice/,"464 Richardson Road, Mount Roskill, Auckland",-36.9124613,174.7281034
Gavin Lobo Health Ltd,/doctors/gp/gavin-lobo-health-ltd/,"337 Dominion Road, Mt Eden",-36.8790067,174.74971449999998
Glenavon Doctor's Surgery,/doctors/gp/glenavon-doctors-surgery/,"271A Blockhouse Bay Road, Avondale, Auckland",-36.9066882,174.7014315
Greenwood Medical Centre,/doctors/gp/greenwood-medical-centre/,"641 Manukau Road, Royal Oak, Auckland",-36.9060132,174.7742012
Grey Lynn Family Medical Centre,/doctors/gp/grey-lynn-family-medical-centre/,"543 Great North Road, Grey Lynn, Auckland",-36.8648504,174.7376784
Hauora o Puketapapa - Roskill Union & Community Health,/doctors/gp/hauora-o-puketapapa-roskill-union-community/,"1492 Dominion Road Extension, Mount Roskill, Auckland",-36.921015,174.7361036
Health Star Medical Centre - Glen Innes,/doctors/gp/health-star-medical-centre-glen-innes/,"132 West Tamaki Road, Glen Innes, Auckland",-36.8693482,174.85994089999997
Healthcare Roskill South,/doctors/gp/healthcare-roskill-south/,"1259 Dominion Road Extension, Mount Roskill, Auckland",-36.921166,174.7355256
Herne Bay Medical Centre,/doctors/gp/herne-bay-medical-centre/,,,
Hillsborough Medical Centre,/doctors/gp/hillsborough-medical-centre/,"165 Hillsborough Road, Hillsborough, Auckland",-36.9197338,174.7574083
Hillside Medical Centre,/doctors/gp/hillside-medical-centre/,"711 Richardson Road, Hillsborough, Auckland",-36.9261124,174.7493035
Holistic Medical Centre,/doctors/gp/holistic-medical-centre/,"48A Ponsonby Road, Grey Lynn, Auckland",-36.8589186,174.75081209999996
Hong Kong Surgery,/doctors/gp/hong-kong-surgery/,"111 Queens Road, Panmure, Auckland",-36.900033,174.854786
K' Road Medical Centre,/doctors/gp/k-road-medical-centre/,"345 Karangahape Road, Auckland Central, Auckland",-36.8578844,174.7572342
Kingsland Family Health Centre,/doctors/gp/kingsland-family-health-centre/,"495 New North Road, Kingsland, Auckland",-36.8722373,174.7440451
Langimalie Health Centre,/doctors/gp/langimalie-health-centre/,,,
Lynfield Medical Clinic,/doctors/gp/lynfield-medical-clinic/,Lynfield Shopping Centre,-36.9260278,174.7228301
M.P.S. Surgery Ltd,/doctors/gp/mps-surgery-ltd/,"44 Mason Avenue, Otahuhu, Auckland",-36.9448406,174.83969149999996
Marsden Medical Practice,/doctors/gp/marsden-medical-practice/,"785 Mount Eden Road, Mount Eden, Auckland",-36.8931099,174.7522881
Maungakiekie Clinic,/doctors/gp/maungakiekie-clinic-1/,Maungakiekie Clinic,-36.8921709,174.7950877
Meadowbank Family Doctors,/doctors/gp/meadowbank-family-doctors/,Meadowbank Shopping Centre,-36.87570712355306,174.82790172100067
Meadowbank General Practice,/doctors/gp/meadowbank-general-practice/,"25 St Johns Road, Saint Johns, Auckland",-36.8765486,174.82678299999998
Meadowbank Medical Centre,/doctors/gp/meadowbank-medical-centre/,"2 Blackett Crescent, Meadowbank, Auckland",-36.87333599999999,174.8288636
Mens High Street Clinic,/doctors/gp/mens-high-street-clinic/,"Level 3, 43 High Street, Auckland Central, Auckland",-36.8480151,174.7662993
Mission Bay Doctors,/doctors/gp/mission-bay-doctors/,"10 Marau Crescent, Mission Bay, Auckland",-36.84860949999999,174.8304257
Mt Albert Medical Centre,/doctors/gp/mt-albert-medical-centre/,"986 New North Road, Mount Albert, Auckland",-36.8856086,174.71422459999997
Mt Eden 575 Doctors,/doctors/gp/mt-eden-575-doctors/,"575 Mount Eden Road, Mount Eden, Auckland",-36.8872325,174.7600193
Mt Eden Medical Centre,/doctors/gp/mt-eden-medical-centre/,"457 Mount Eden Road, Mount Eden, Auckland",-36.8833408,174.7611331
Mt Eden Village Doctors,/doctors/gp/mt-eden-village-doctors/,"431A Mount Eden Road, Mount Eden, Auckland",-36.8818484,174.7619065
Mt Roskill Medical & Surgical Centre,/doctors/gp/mt-roskill-medical-surgical-centre/,Mt Roskill Medical & Surgical Centre,-36.9132158,174.7279796
Mt Smart Medical Centre,/doctors/gp/mt-smart-medical-centre/,Mt Smart Medical Centre,-36.914822,174.80138120000004
Mt Wellington Accident and Family Health Care,/doctors/gp/mt-wellington-accident-and-family-health/,"1/627 Mount Wellington Highway, Mount Wellington, Auckland",-36.9298183808592,174.84264850616455
Mt Wellington Family Health Centre,/doctors/gp/mt-wellington-family-health-centre/,"283 Penrose Road, Mount Wellington, Auckland",-36.9080291,174.8368786
Mt Wellington Medical Clinic,/doctors/gp/mt-wellington-medical-clinic/,"350 Ellerslie-Panmure Highway, Mount Wellington, Auckland",-36.8965955,174.8310446
My Doctor Limited,/doctors/gp/my-doctor-limited/,"52 Gladstone Road, Parnell, Auckland",-36.8533478,174.7863354
New Al-Dawa Medical Centre,/doctors/gp/new-al-dawa-medical-centre/,"1230 Dominion Road, Mount Roskill, Auckland",-36.9027872,174.74257409999996
New Windsor Medical Centre,/doctors/gp/new-windsor-medical-centre/,"275 New Windsor Road, New Windsor, Auckland",-36.91131584480931,174.71693068742752
Newmarket Medical Centre,/doctors/gp/newmarket-medical-centre/,"197 Broadway, Newmarket, Auckland",-36.86907790000001,174.7776076
Newton Medical Centre,/doctors/gp/newton-medical-centre/,"353 Karangahape Road, Auckland Central, Auckland",-36.8579574,174.7569832
OneHealth General Practice & Urgent Care,/doctors/gp/onehealth-general-practice-urgent-care/,"122 Remuera Road, Remuera, Auckland",-36.8738338,174.7838921
Onecare Health Otahuhu,/doctors/gp/onecare-health-otahuhu/,"121 Church Street, Otahuhu, Auckland",-36.9447479,174.84679719999997
Onehunga Accident & Medical Centre,/doctors/gp/onehunga-accident-medical-centre/,Onehunga Accident & Medical Centre,-36.9233319,174.7836727
Onehunga Doctors Ltd,/doctors/gp/onehunga-doctors-ltd/,"545 Richardson Road, Mount Roskill, Auckland",-36.9191927,174.73426270000004
Onehunga Family Medical Centre,/doctors/gp/onehunga-family-medical-centre/,"161 Onehunga Mall, Onehunga, Auckland",-36.9235475,174.78564200000005
Onehunga Medical Practice,/doctors/gp/onehunga-medical-practice/,"147 Onehunga Mall, Onehunga, Auckland",-36.92408289999999,174.7857299
Oneroa Accident & Medical Centre,/doctors/gp/oneroa-accident-medical-centre/,Oneroa Accident & Medical Centre,-36.7836872,175.0110032
Orakei Health Services - General Practice,/doctors/gp/orakei-health-services-general-practice/,"25/215 Kepa Road, Mission Bay, Auckland",-36.8606817,174.8296432
Ostend Medical Centre,/doctors/gp/ostend-medical-centre-1/,Ostend Medical Centre,-36.7961076,175.0449138
Otahuhu College Health & Wellness Centre,/doctors/gp/otahuhu-college-health-wellness-centre/,"74-78 Mangere Road, Otahuhu, Auckland",-36.9518343,174.83932470000002
Otahuhu Family Doctors,/doctors/gp/otahuhu-family-doctors/,"29 Mason Avenue, Otahuhu, Auckland",-36.9441016,174.8405917
Otahuhu Family Medical Centre,/doctors/gp/otahuhu-family-medical-centre/,"3/507 Great South Road, Otahuhu, Auckland",-36.9340876,174.8515804
Otahuhu Family Practice,/doctors/gp/otahuhu-family-practice/,"115 Church Street, Otahuhu, Auckland",-36.9444107,174.8467297
Otahuhu Health Centre,/doctors/gp/otahuhu-health-centre/,"3/507 Great South Road, Otahuhu, Auckland",-36.9470557,174.84524520000002
Otahuhu Medical Clinic,/doctors/gp/otahuhu-medical-clinic/,"463 Great South Road, Otahuhu, Auckland",-36.9457784,174.8447281
Panmure Medical Centre,/doctors/gp/panmure-medical-centre/,"204 Queens Road, Panmure, Auckland",-36.9009175,174.8574874
Panmure Surgery,/doctors/gp/panmure-surgery-1/,Panmure Surgery,-36.900868,174.85722120000003
Parnell Family Doctor,/doctors/gp/parnell-family-doctor-1/,Parnell Family Doctor,-36.8593678,174.7819501
Parnell GP Clinic,/doctors/gp/parnell-gp-clinic/,"14 Fox Street, Parnell, Auckland",-36.85063929999999,174.77899960000002
Parnell Medical Centre,/doctors/gp/parnell-medical-centre/,"82B Gladstone Road, Parnell, Auckland",-36.8523073,174.78607799999997
Penrose Clinic,/doctors/gp/penrose-clinic/,"766 Great South Road, Penrose, Auckland",-36.91033729999999,174.8169556
Piritahi Hau Ora Trust General Practice,/doctors/gp/piritahi-hau-ora-trust-general-practice/,Piritahi Hau Ora Trust,-36.789162,175.00903519999997
Pogson Health Services Ltd,/doctors/gp/pogson-health-services-ltd/,"88 Jervois Road, Ponsonby, Auckland",-36.84560379999999,174.74079359999996
Point Chevalier Medical & Surgical Centre,/doctors/gp/point-chevalier-medical-surgical-centre/,"1181 Great North Road, Point Chevalier, Auckland",-36.8699814,174.7109122
Ponsonby Medical Centre,/doctors/gp/ponsonby-medical-centre/,"1 Vermont Street, Ponsonby, Auckland",-36.8529933,174.7452462
QuayMed Accident and Medical,/doctors/gp/quaymed-accident-and-medical/,Quay Park Health Building,-36.847517,174.7744872
Queen Street Doctors,/doctors/gp/queen-street-doctors/,"87 Queen Street, Auckland Central, Auckland",-36.8456216,174.7661584
Queen Street Medical Centre,/doctors/gp/queen-street-medical-centre/,"31 Queen Street, Otahuhu, Auckland",-36.9462635,174.84423449999997
Ranfurly Medical Centre,/doctors/gp/ranfurly-medical-centre/,"235 Manukau Road, Epsom, Auckland",-36.8847688,174.7753021
Raphael Medical Therapy Centre,/doctors/gp/raphael-medical-therapy-centre/,"11 Woodford Road, Mount Eden, Auckland",-36.8781605,174.7543771
Remuera Doctors Ltd.,/doctors/gp/remuera-doctors-ltd/,"320 Remuera Road, Remuera, Auckland",-36.8803576,174.7964725
Remuera Medical Centre,/doctors/gp/remuera-medical-centre/,"377 Remuera Road, Remuera, Auckland",-36.8807607,174.79802829999994
Remuera Village Medical Centre,/doctors/gp/remuera-village-medical-centre/,"597 Remuera Road, Remuera, Auckland",-36.8803551,174.81270829999994
Richmond Road Medical Centre,/doctors/gp/richmond-road-medical-centre/,"452 Richmond Road, Grey Lynn, Auckland",-36.8588647,174.7316243
Rosebank Road Medical Services Ltd.,/doctors/gp/rosebank-road-medical-services-ltd/,"65 Rosebank Road, Avondale, Auckland",-36.8943862,174.6968208
Royal Oak Medical Centre,/doctors/gp/royal-oak-medical-centre/,Royal Oak Mall,-36.9104783,174.77481910000006
Selwyn Medical Centre,/doctors/gp/selwyn-medical-centre/,"307 Kepa Road, Mission Bay, Auckland",-36.8604569,174.83679419999999
Selwyn Village Medical Centre,/doctors/gp/selwyn-village-medical-centre/,"21 Shaftesbury Avenue, Point Chevalier, Auckland",-36.8649266,174.69951979999996
Sore Throat Clinics - Auckland,/doctors/gp/sore-throat-clinics-auckland/,,,
St Heliers Health Centre,/doctors/gp/st-heliers-health-centre/,"9B Polygon Road, St Heliers, Auckland",-36.8518205,174.85735539999996
St Heliers Medical Centre,/doctors/gp/st-heliers-medical-centre/,"Pimlico Building, St Heliers",-36.8503737,174.85862959999997
St Lukes Medical Centre,/doctors/gp/st-lukes-medical-centre/,"99 St Lukes Road, Sandringham, Auckland",-36.8850218,174.7357037
Stoddard Road Medical Centre,/doctors/gp/stoddard-road-medical-centre/,"223 Stoddard Road, Mount Roskill, Auckland",-36.9000168,174.72104060000004
Stonefields Medical Centre,/doctors/gp/stonefields-medical-centre/,"40 Stonefields Avenue, Auckland",-36.8867854,174.84482830000002
Surrey Medical Centre,/doctors/gp/surrey-medical-centre/,"26 Surrey Crescent, Grey Lynn, Auckland",-36.8636713,174.7368339
Symonds Street Medical Centre,/doctors/gp/symonds-street-medical-centre/,"57 Symonds Street, Grafton, Auckland",-36.8565593,174.7650984
Tamaki Family Health Centre,/doctors/gp/tamaki-family-health-centre/,"2-4 Clifton Court, Panmure, Auckland",-36.8988482,174.85378939999998
The Calder Centre,/doctors/gp/the-calder-centre/,"136 Hobson Street, Auckland Central, Auckland",-36.8506858,174.76082840000004
The Fono - Central,/doctors/gp/the-fono-central/,"33 Wyndham Street, Auckland Central, Auckland",-36.8466811,174.7638419
The Fono - West Central,/doctors/gp/the-fono-west-central/,"297 Blockhouse Bay Road, Avondale, Auckland",-36.9082507,174.7014468
Three Kings Accident & Medical,/doctors/gp/three-kings-accident-medical/,"536 Mount Albert Road, Three Kings, Auckland",-36.9087734,174.7553448
Three Kings Family Medical Centre,/doctors/gp/three-kings-family-medical-centre/,"535 Mount Albert Road, Three Kings, Auckland",-36.90947669999999,174.75797680000005
Turuki Health Care - Panmure,/doctors/gp/turuki-health-care-panmure/,"62 Queens Road, Panmure",-36.8993291,174.85365490000004
Unitec Student Health,/doctors/gp/unitec-student-health/,"Unitec, Mt Albert",-36.87681052820344,174.70701456069946
University Health & Counselling Service,/doctors/gp/university-health-counselling-service/,,,
Viaduct Medical Centre,/doctors/gp/viaduct-medical-centre/,"125 Customs Street West, Auckland Central, Auckland",-36.8441398,174.7600248
Victoria Park Medical Suites,/doctors/gp/victoria-park-medical-suites/,"5 Vernon Street, Auckland Central, Auckland",-36.8488532,174.75583340000003
Well for Life,/doctors/gp/well-for-life/,"88 Jervois Road, Ponsonby, Auckland",-36.84560379999999,174.74079359999996
Westmere Medical Centre,/doctors/gp/westmere-medical-centre/,"146 Garnet Road, Westmere, Auckland",-36.8548664,174.7187932
White Cross Accident & Medical - Auckland,/doctors/gp/white-cross-accident-medical-auckland/,,,
Worldwise Travellers Health Centre Newmarket,/doctors/gp/worldwise-travellers-health-centre-newmarket/,"12C St Marks Road, Remuera, Auckland",-36.87466289999999,174.78045150000003
Bader Drive Healthcare,/doctors/gp/bader-drive-healthcare/,,,
Beachlands Medical Centre,/doctors/gp/beachlands-medical-centre/,Beachlands Medical Centre,-36.8820007,174.9967435
Botany Doctor,/doctors/gp/botany-doctor/,Botany Town Centre,-36.9355725,174.91468399999996
Botany Junction Medical Centre,/doctors/gp/botany-junction-medical-centre/,"110 Michael Jones Drive, Flat Bush, Auckland",-36.9650376,174.90342280000004
Botany Terrace Medical Centre,/doctors/gp/botany-terrace-medical-centre/,"301F Botany Road, Golflands, Auckland",-36.92526735769248,174.91270244121551
Botany Town Centre Medical Practice,/doctors/gp/botany-town-centre-medical-practice/,Botany Town Centre,-36.9355725,174.914684
Clendon Family Health Centre,/doctors/gp/clendon-family-health-centre/,"9 Robert Ross Place, Clendon Park, Auckland",-37.0313912,174.8676438
Clevedon Village Medical Centre,/doctors/gp/clevedon-village-medical-centre/,"27 Papakura-Clevedon Road, Clevedon",-36.9940928,175.03626540000005
Crawford Medical Centre,/doctors/gp/crawford-medical-centre/,Crawford Medical Centre,-36.8919603,174.92929049999998
DW Family Doctors,/doctors/gp/dw-family-doctors/,"177 Pakuranga Road, Pakuranga, Auckland",-36.91103830000001,174.87485449999997
East Care Accident & Medical,/doctors/gp/east-care-accident-medical/,East Care,-36.9223969,174.91370040000004
East Tamaki Healthcare (ETHC) - Dannemora,/doctors/gp/east-tamaki-healthcare-ethc-dannemora/,"1-3 Redcastle Drive, East Tamaki, Auckland",-36.9453299,174.9068517
East Tamaki Healthcare (ETHC) - Otahuhu,/doctors/gp/east-tamaki-healthcare-ethc-otahuhu/,"15-23 Station Road, Otahuhu, Auckland",-36.9426401,174.8404322
Eastern Family Doctors,/doctors/gp/eastern-family-doctors/,"17 Aviemore Drive, Highland Park, Auckland",-36.9008222,174.9046793
Eastside Family Doctor,/doctors/gp/eastside-family-doctor/,"98 Ti Rakau Drive, Pakuranga, Auckland",-36.9181432,174.87471040000003
Family Health Care Medical Centre,/doctors/gp/family-health-care-medical-centre/,"17 Aberfeldy Avenue, Highland Park, Auckland",-36.899940020828446,174.9087917804718
Gardens Medical Limited,/doctors/gp/gardens-medical-limited/,"179 Hill Road, Manurewa, Auckland",-37.0113254,174.91615419999994
Greenstone Family Clinic,/doctors/gp/greenstone-family-clinic/,"157 Great South Road, Manurewa, Auckland",-37.020321,174.895542
Health and Happiness (un) Ltd,/doctors/gp/health-and-happiness-un-ltd/,"488 Great South Road, Papatoetoe, Auckland",-36.977737,174.87159080000004
Highgate Surgery,/doctors/gp/highgate-surgery/,"139 Millhouse Drive, Golflands, Auckland",-36.919638,174.91521090000003
Highland Park Medical,/doctors/gp/highland-park-medical/,"14 Highland Park Drive, Highland Park, Auckland",-36.89987999999999,174.90785649999998
Howick Health and Medical Centre,/doctors/gp/howick-health-and-medical-centre/,"108 Ridge Road, Howick, Auckland",-36.8955894,174.92296520000002
Howick House Medical,/doctors/gp/howick-house-medical/,"43 Moore Street, Howick, Auckland",-36.895779,174.9311783
Howick Medical Practice,/doctors/gp/howick-medical-practice/,"128 Picton Street, Howick, Auckland",-36.8951546,174.93349520000004
Juliet Avenue Surgery,/doctors/gp/juliet-avenue-surgery/,"59 Juliet Avenue, Howick, Auckland",-36.8949973,174.9170706
Kawakawa Bay Orere Health Clinic Inc,/doctors/gp/kawakawa-bay-orere-health-clinic-inc/,"Kawakawa-Orere Road, Kawakawa Bay",-36.9506133,175.170131
M.P.S. Surgery Ltd,/doctors/gp/mps-surgery-ltd/,"44 Mason Avenue, Otahuhu, Auckland",-36.9448406,174.83969149999996
Maraetai Medical Centre,/doctors/gp/maraetai-medical-centre/,"10 Maraetai School Road, Maraetai, Auckland",-36.8807955,175.034398
Marina Medical,/doctors/gp/marina-medical/,Marina Medical & Specialists,-36.8896702,174.898886
Millhouse Integrative Medical Centre,/doctors/gp/millhouse-integrative-medical-centre/,"128 Millhouse Drive, Northpark, Auckland",-36.9192991,174.91774420000002
Orere Point Health Clinic,/doctors/gp/orere-point-health-clinic/,"Orere Point Road, Orere Point",-36.9591612,175.2434505
Otahuhu College Health & Wellness Centre,/doctors/gp/otahuhu-college-health-wellness-centre/,"74-78 Mangere Road, Otahuhu, Auckland",-36.9518343,174.83932470000002
Otahuhu Family Practice,/doctors/gp/otahuhu-family-practice/,"115 Church Street, Otahuhu, Auckland",-36.9444107,174.8467297
Otara Family and Christian Health Centre,/doctors/gp/otara-family-and-christian-health-centre/,"120 East Tamaki Road, Otara, Auckland",-36.9620625,174.8731993
Otara Union Health,/doctors/gp/otara-union-health/,"100 Alexander Crescent, Otara, Auckland",-36.9586605,174.87442409999994
Pakuranga Medical Centre,/doctors/gp/pakuranga-medical-centre-1/,"17 William Roberts Road, Pakuranga, Auckland",-36.9126158,174.87367840000002
Papakura Marae Health Clinic,/doctors/gp/papakura-marae-health-clinic/,"29 Hunua Road, Papakura",-37.07020840000001,174.95916680000005
Papatoetoe Family Doctors,/doctors/gp/papatoetoe-family-doctors/,"15 Kolmar Road, Papatoetoe, Auckland",-36.9790483,174.85468790000004
Papatoetoe South Medical Centre,/doctors/gp/papatoetoe-south-medical-centre/,"580 Great South Road, Papatoetoe, Auckland",-36.95175499999999,174.8456764
Picton Surgery,/doctors/gp/picton-surgery/,"2 Fencible Drive, Howick, Auckland",-36.895417,174.93136219999997
Puhinui Medical Centre,/doctors/gp/puhinui-medical-centre/,"149 Puhinui Road, Papatoetoe, Auckland",-36.9870803,174.86063509999997
Pukekohe Family Health Care,/doctors/gp/pukekohe-family-health-care/,,,
Queen Street Medical Centre,/doctors/gp/queen-street-medical-centre/,"31 Queen Street, Otahuhu, Auckland",-36.9462635,174.84423449999997
Rosehill Christian Medical Centre,/doctors/gp/rosehill-christian-medical-centre/,"2-4 Tairere Crescent, Rosehill, Papakura",-37.0798348,174.93692020000003
Sandhu Doctors Ltd,/doctors/gp/sandhu-doctors-ltd/,"488 Great South Road, Papatoetoe, Auckland",-36.977737,174.87159080000004
Selwyn House Medical Centre,/doctors/gp/selwyn-house-medical-centre/,"46 Wellington Street, Howick, Auckland",-36.8946147,174.92975449999994
Sommerville Surgery,/doctors/gp/sommerville-surgery/,Sommerville Surgery,-36.9126333,174.92935869999997
Sore Throat Clinics - Auckland,/doctors/gp/sore-throat-clinics-auckland/,,,
South Seas Healthcare,/doctors/gp/south-seas-healthcare/,"Fair Mall, Otara",-36.960653,174.8733198
The Family Practice,/doctors/gp/the-family-practice/,"215 Bleakhouse Road, Mellons Bay, Auckland",-36.8809283,174.9257884
Tiakina Te Ora,/doctors/gp/tiakina-te-ora/,Tiakina Te Ora,-37.0615994,174.9396054
Turuki Health Care,/doctors/gp/turuki-health-care/,"Turuki Health Care, Mangere",-36.9720997,174.80350929999997
Vincent Street Family Doctors,/doctors/gp/vincent-street-family-doctors/,"80A Vincent Street, Howick, Auckland",-36.902487,174.92574650000006
AUT Health/Medical Centre,/doctors/gp/aut-health-medical-centre/,,,
Albany Basin Accident and Medical,/doctors/gp/albany-basin-accident-and-medical/,Albany Basin Accident and Medical,-36.75440023387624,174.7100293636322
Albany Family Medical Centre,/doctors/gp/albany-family-medical-centre/,"368 Albany Highway, Albany, Auckland",-36.743011,174.692466
All Care Family Medical Centre - Northcote,/doctors/gp/all-care-family-medical-centre-northcote/,"52 Pearn Crescent, Northcote, Auckland",-36.8007331,174.7462048
Anne Street Medical Centre,/doctors/gp/anne-street-medical-centre/,"29 Anne Street, Devonport, Auckland",-36.8303616,174.7954899
Apollo Medical,/doctors/gp/apollo-medical/,"119 Apollo Drive, Rosedale, Auckland",-36.735662,174.72740699999997
Archers Medical Centre,/doctors/gp/archers-medical-centre/,"130 Archers Road, Glenfield, Auckland",-36.7846042,174.73403789999998
Beachhaven Medical,/doctors/gp/beachhaven-medical/,"330 Rangatira Road, Beach Haven, Auckland",-36.80175210000001,174.69131
Belmont Medical Centre,/doctors/gp/belmont-medical-centre/,"3 Williamson Avenue, Belmont, Auckland",-36.808346,174.7904833
Birkdale Family Doctors Ltd,/doctors/gp/birkdale-family-doctors-ltd/,"93 Birkdale Road, Birkdale, Auckland",-36.7973193,174.70093410000004
Birkenhead Medical Centre,/doctors/gp/birkenhead-medical-centre/,"4 Rawene Road, Birkenhead, Auckland",-36.8135292,174.72638059999997
Browns Bay Family Doctors,/doctors/gp/browns-bay-family-doctors/,"65 Clyde Road, Browns Bay, Auckland",-36.7149449,174.74823049999998
Browns Bay Medical Centre,/doctors/gp/browns-bay-medical-centre/,"32 Anzac Road, Browns Bay, Auckland",-36.71704839999999,174.74610759999996
Byron Medical,/doctors/gp/byron-medical/,"2 Byron Avenue, Takapuna, Auckland",-36.7906436,174.7725791
Coast To Coast Health Care,/doctors/gp/coast-to-coast-health-care/,,,
Coastcare Accident and Medical Centre,/doctors/gp/coastcare-accident-and-medical-centre/,"Red Beach Shopping Centre, Red Beach",-36.60605892332022,174.69858169555664
Coastcare Chartwell Medical Centre,/doctors/gp/coastcare-chartwell-medical-centre/,"31 Chartwell Avenue, Glenfield, Auckland",-36.78324489999999,174.73158880000005
Coastcare Medical Centre - Birkenhead,/doctors/gp/coastcare-medical-centre-birkenhead/,"121 Birkenhead Avenue, Birkenhead, Auckland",-36.80736419999999,174.7258375
Devonport Family Medicine,/doctors/gp/devonport-family-medicine/,"2 Fleet Street, Devonport, Auckland",-36.8292808,174.79730129999996
Devonport Medical Centre,/doctors/gp/devonport-medical-centre/,"82 Lake Road, Narrow Neck, Auckland",-36.8129655,174.79262399999993
Dodson Medical,/doctors/gp/dodson-medical/,"4 Dodson Avenue, Milford, Auckland",-36.7739139,174.76655489999996
East Coast Bays Doctors,/doctors/gp/east-coast-bays-doctors/,"512 East Coast Road, Windsor Park, Auckland",-36.740348,174.74185379999994
Family Doctors,/doctors/gp/family-doctors/,"10 Wade River Road, Stanmore Bay, Whangaparaoa",-36.6377254,174.74781789999997
Family Doctors@Smales,/doctors/gp/family-doctorssmales/,Smales Farm Technology Office Park - Takapuna,-36.784107938385745,174.7535079717636
Family Medicine Birkenhead,/doctors/gp/family-medicine-birkenhead/,"29 Birkenhead Avenue, Birkenhead, Auckland",-36.810288,174.7367392
Fenwick Medical Centre,/doctors/gp/fenwick-medical-centre/,"217 Shakespeare Road, Milford",-36.7819274,174.75300070000003
Forrest Hill Family Medical Centre,/doctors/gp/forrest-hill-family-medical-centre/,"1/1 Grenada Avenue, Forrest Hill, Auckland",-36.8484597,174.76333150000005
Fred Thomas Health Family Medical Centre,/doctors/gp/fred-thomas-health-family-medical-centre/,Fred Thomas Health Family Medical Centre,-36.7912102,174.76365299999998
Glenfield Doctors on Chartwell,/doctors/gp/glenfield-doctors-on-chartwell/,"52 Chartwell Avenue, Glenfield, Auckland",-36.78266989999999,174.730143
Glenfield Family Doctors,/doctors/gp/glenfield-family-doctors/,"571 Glenfield Road, Glenfield, Auckland",-36.7704053,174.721913
Glenfield Medical Centre,/doctors/gp/glenfield-medical-centre/,Glenfield Medical Centre,-36.7802116,174.7214199
Green Cross Clinic,/doctors/gp/green-cross-clinic/,"4 Auburn Street, Takapuna, Auckland",-36.7894679,174.7688818
Greenhithe Medical Centre,/doctors/gp/greenhithe-medical-centre/,"22 Greenhithe Road, Greenhithe, Auckland",-36.7742504,174.6714403
Hauraki Medical Centre,/doctors/gp/hauraki-medical-centre/,Hauraki Medical Centre,-36.7972462,174.7793294
Health - I Care,/doctors/gp/health-i-care/,"205 Wairau Road, Wairau Valley, Auckland",-36.7697327,174.73566549999998
"Health and Counselling Centre, Massey University",/doctors/gp/health-and-counselling-centre-massey-university/,"Student Amenities Centre, Massey University, Albany",-36.734753,174.6923293
HealthZone,/doctors/gp/healthzone/,AUT Millennium,-36.7421613,174.7331282
Healthwise Beach Haven,/doctors/gp/healthwise-beach-haven/,"352 Rangatira Road, Beach Haven, Auckland",-36.79216640000001,174.68736769999998
Hibiscus Coast Medical Centre,/doctors/gp/hibiscus-coast-medical-centre/,"13 Moana Avenue, Orewa",-36.5866161,174.6932392
Integrated Medical Centre,/doctors/gp/integrated-medical-centre/,"511 South Titirangi Road, Titirangi, Auckland",-36.938972,174.6549189
Kitchener Road Medical Centre,/doctors/gp/kitchener-road-medical-centre/,"174 Kitchener Road, Milford, Auckland",-36.7726723,174.76508349999995
Kowhai Clinic,/doctors/gp/kowhai-clinic/,"424 Glenfield Road, Glenfield, Auckland",-36.7826583,174.7205315
Kowhai Surgery Ltd,/doctors/gp/kowhai-surgery-ltd/,"Kowhai Surgery, Warkworth",-36.3991087,174.66594239999995
MEDPLUS,/doctors/gp/medplus/,MEDPLUS,-36.7879229,174.7688207
Mairangi Medical Centre,/doctors/gp/mairangi-medical-centre/,"2 Penzance Road, Mairangi Bay, Auckland",-36.73804,174.7522096
Manly Medical Centre,/doctors/gp/manly-medical-centre/,,,
Milford Family Medical Centre,/doctors/gp/milford-family-medical-centre/,"50 East Coast Road, Milford, Auckland",-36.7690241,174.75887510000007
Millwater Medical,/doctors/gp/millwater-medical/,"175 Millwater Parkway, Silverdale",-36.598218,174.67768769999998
Nile Road Medical Centre,/doctors/gp/nile-road-medical-centre/,,,
North Harbour Medical Centre,/doctors/gp/north-harbour-medical-centre/,"326 Sunset Road, Windsor Park, Auckland",-36.7470136,174.73924940000006
Northcote Point Doctors,/doctors/gp/northcote-point-doctors/,"73 Onewa Road, Northcote, Auckland",-36.8104457,174.74175059999993
Onewa Doctors,/doctors/gp/onewa-doctors/,"225 Onewa Road, Birkenhead, Auckland",-36.8096548,174.7305366
Orewa Medical Centre,/doctors/gp/orewa-medical-centre/,"8d Tamariki Avenue, Orewa",-36.587997,174.695168
Shorecare - Northcross,/doctors/gp/shorecare-northcross/,"948 East Coast Road, Northcross, Auckland",-36.709248032454894,174.7271364927292
Shorecare - Takapuna,/doctors/gp/shorecare-takapuna/,Smales Farm Technology Office Park - Takapuna,-36.7879229,174.7688207
Silverdale Medical,/doctors/gp/silverdale-medical/,Silverdale Medical Centre,-36.6136183,174.6834051
Snells Beach Medical Centre,/doctors/gp/snells-beach-medical-centre-1/,"Dalton Road, Snells Beach",-36.4236026,174.7300141
Sore Throat Clinics - Auckland,/doctors/gp/sore-throat-clinics-auckland/,,,
Sunnynook Medical Centre Ltd,/doctors/gp/sunnynook-medical-centre-ltd/,"119 Sunnynook Road, Forrest Hill, Auckland",-36.7604783,174.74065810000002
Sunset Road Family Doctors,/doctors/gp/sunset-road-family-doctors/,"317 Sunset Road, Mairangi Bay",-36.747317,174.73959939999997
Takapuna Healthcare,/doctors/gp/takapuna-healthcare/,"25 Bracken Avenue, Takapuna, Auckland",-36.7919068,174.7712171
Te Puna Hauora o te Raki Paewhenua - Health & Social Services,/doctors/gp/te-puna-hauora-o-te-raki-paewhenua-health/,,,
Torbay Community Doctors,/doctors/gp/torbay-community-doctors/,"987 Beach Road, Torbay, Auckland",-36.6943784,174.75080159999993
"Torbay Health (Torbay Medical Centre, Torbay Skin Clinic)",/doctors/gp/torbay-health-torbay-medical-centre-torbay/,Torbay Health,-36.6953635,174.75150199999996
Travel Clinic North Shore,/doctors/gp/travel-clinic-north-shore/,"101 Apollo Drive, Rosedale, Auckland",-36.73674889999999,174.72786210000004
Village Medical (Practice of Dr Pitsilis),/doctors/gp/village-medical-practice-of-dr-pitsilis/,"2 Dodson Avenue, Milford, Auckland",-36.7737165,174.7664706
Waiake Medical Centre,/doctors/gp/waiake-medical-centre/,"1 Hebron Road, Waiake, Auckland",-36.708365,174.7477443
Warkworth Medical Centre,/doctors/gp/warkworth-medical-centre/,Warkworth Medical Centre,-36.3997448,174.66622340000004
West Harbour Medical Centre,/doctors/gp/west-harbour-medical-centre/,"86 Oreil Avenue, West Harbour, Auckland",-36.8230174,174.6239954
Whangaparaoa Medical Centre,/doctors/gp/whangaparaoa-medical-centre/,"16 Wade River Road, Stanmore Bay, Whangaparaoa",-36.63798449999999,174.74729649999995
White Cross Accident & Medical - Auckland,/doctors/gp/white-cross-accident-medical-auckland/,,,
Windsor Medical Centre,/doctors/gp/windsor-medical-centre-1/,"51 Corinthian Drive, Albany, Auckland",-36.7310749,174.7141599
AUT Health/Medical Centre,/doctors/gp/aut-health-medical-centre/,,,
Airport Doctors,/doctors/gp/airport-doctors/,Airport Doctors,-36.9962043,174.7881753
Bader Drive Healthcare,/doctors/gp/bader-drive-healthcare/,,,
Bakerfield Medical and Urgent Care,/doctors/gp/bakerfield-medical-and-urgent-care/,"16A Bakerfield Place, Manukau, Auckland",-36.9888735,174.88548590000005
Bishop Medical Centre,/doctors/gp/bishop-medical-centre/,"8R Bishop Lenihan Place, East Tamaki, Auckland",-36.96198755716099,174.8995542526245
Botany Doctor,/doctors/gp/botany-doctor/,Botany Town Centre,-36.9355725,174.91468399999996
Botany Junction Medical Centre,/doctors/gp/botany-junction-medical-centre/,"110 Michael Jones Drive, Flat Bush, Auckland",-36.9650376,174.90342280000004
Botany Terrace Medical Centre,/doctors/gp/botany-terrace-medical-centre/,"301F Botany Road, Golflands, Auckland",-36.92526735769248,174.91270244121551
Cavendish Family Doctors,/doctors/gp/cavendish-family-doctors/,Cavendish Clinic,-36.99298945335735,174.8605763912201
Clendon Family Health Centre,/doctors/gp/clendon-family-health-centre/,"9 Robert Ross Place, Clendon Park, Auckland",-37.0313912,174.8676438
Clendon Medical Centre,/doctors/gp/clendon-medical-centre-1/,Clendon Medical Centre,-37.0339441,174.8671068
Clevedon Road Medical Centre,/doctors/gp/clevedon-road-medical-centre-1/,"1 Clevedon Road, Papakura",-37.0621494,174.94856949999996
Conifer Grove Medical Centre,/doctors/gp/conifer-grove-medical-centre/,"138 Great South Road, Takanini",-37.0411077,174.91714479999996
Counties Family Health Care,/doctors/gp/counties-family-health-care/,"79-85 Great South Road, Papakura",-37.0592652,174.9401602
Counties Urgent Care,/doctors/gp/counties-urgent-care/,"79-85 Great South Road, Papakura",-37.0594051,174.94037879999996
Dr K Magan Surgery,/doctors/gp/dr-k-magan-surgery/,"Corner of Yates Road & Massey Road, Mangere East, Auckland",-36.9661212,174.82589630000007
Dr Patel's Surgery,/doctors/gp/dr-patels-surgery/,"738 Massey Road, Mangere, Auckland",-36.9763967,174.79701190000003
Dr Upsdell's Surgery,/doctors/gp/dr-upsdells-surgery/,"2 Graeme Avenue, Mangere East, Auckland",-36.9725434,174.83410189999995
Drury Lane Surgery,/doctors/gp/drury-lane-surgery/,"213 Great South Road, Drury",-37.100957,174.95092009999996
Drury Surgery Ltd,/doctors/gp/drury-surgery-ltd/,"175 Great South Road, Drury",-37.098174,174.94844060000003
East Tamaki Healthcare (ETHC) - Airport Oaks,/doctors/gp/east-tamaki-healthcare-ethc-airport-oaks/,East Tamaki Healthcare (ETHC) - Airport Oaks,-36.9714065,174.785845
East Tamaki Healthcare (ETHC) - Bairds Road,/doctors/gp/east-tamaki-healthcare-ethc-bairds-road/,"160 Bairds Road, Otara, Auckland",-36.9607199,174.87511399999994
East Tamaki Healthcare (ETHC) - Botany South,/doctors/gp/east-tamaki-healthcare-ethc-botany-south/,"455 East Tamaki Road, East Tamaki, Auckland",-36.9489612,174.90558910000004
East Tamaki Healthcare (ETHC) - Chapel Park,/doctors/gp/east-tamaki-healthcare-ethc-chapel-park/,"160 Chapel Road, Flat Bush, Auckland",-36.9484475,174.9112416
East Tamaki Healthcare (ETHC) - Dawson Road,/doctors/gp/east-tamaki-healthcare-ethc-dawson-road/,East Tamaki Healthcare (ETHC) - Dawson Road,-36.9769806,174.8961312
East Tamaki Healthcare (ETHC) - East Tamaki,/doctors/gp/east-tamaki-healthcare-ethc-east-tamaki/,"275 East Tamaki Road, Otara, Auckland",-36.9610281,174.8878344
East Tamaki Healthcare (ETHC) - Kolmar Road,/doctors/gp/east-tamaki-healthcare-ethc-kolmar-road/,"133 Kolmar Road, Papatoetoe, Auckland",-36.9705824,174.85938310000006
East Tamaki Healthcare (ETHC) - Mangere Town Centre,/doctors/gp/east-tamaki-healthcare-ethc-mangere-town/,"10 Waddon Place, Mangere, Auckland",-36.9711686,174.7989505
East Tamaki Healthcare (ETHC) - Manurewa,/doctors/gp/east-tamaki-healthcare-ethc-manurewa/,"235 Browns Road, Manurewa, Auckland",-37.01788809890644,174.86328542232513
East Tamaki Healthcare (ETHC) - Otahuhu,/doctors/gp/east-tamaki-healthcare-ethc-otahuhu/,"15-23 Station Road, Otahuhu, Auckland",-36.9426401,174.8404322
East Tamaki Healthcare (ETHC) - Otara Mall,/doctors/gp/east-tamaki-healthcare-ethc-otara-mall/,"120 East Tamaki Road, Otara, Auckland",-36.9619783,174.8732386
East Tamaki Healthcare (ETHC) - Takanini Medical Centre,/doctors/gp/east-tamaki-healthcare-ethc-takanini-medical/,"30 Walters Road, Takanini",-37.0484319,174.93318620000002
East Tamaki Healthcare (ETHC) Clendon Medical Clinic,/doctors/gp/east-tamaki-healthcare-ethc-clendon-medical/,"459 Roscommon Road, Clendon Park, Auckland",-37.032968,174.8691682
Fellbrook Medical Centre,/doctors/gp/fellbrook-medical-centre/,"33 Fellbrook Street, Manurewa, Auckland",-37.020492243891475,174.86443877220154
Gardens Medical Limited,/doctors/gp/gardens-medical-limited/,"179 Hill Road, Manurewa, Auckland",-37.0113254,174.91615419999994
Greenstone Family Clinic,/doctors/gp/greenstone-family-clinic/,"157 Great South Road, Manurewa, Auckland",-37.020321,174.895542
Hall Avenue Medical Centre,/doctors/gp/hall-avenue-medical-centre/,"23 Hall Avenue, Otahuhu, Auckland",-36.944839,174.8431098
Health and Happiness (un) Ltd,/doctors/gp/health-and-happiness-un-ltd/,"488 Great South Road, Papatoetoe, Auckland",-36.977737,174.87159080000004
Highgate Surgery,/doctors/gp/highgate-surgery/,"139 Millhouse Drive, Golflands, Auckland",-36.919638,174.91521090000003
Highland Park Medical,/doctors/gp/highland-park-medical/,"14 Highland Park Drive, Highland Park, Auckland",-36.89987999999999,174.90785649999998
Hillpark Family Medical Centre,/doctors/gp/hillpark-family-medical-centre/,"32 Dennis Avenue, Manurewa, Auckland",-37.0138948,174.90075019999995
Howick House Medical,/doctors/gp/howick-house-medical/,"43 Moore Street, Howick, Auckland",-36.895779,174.9311783
Howick Medical Practice,/doctors/gp/howick-medical-practice/,"128 Picton Street, Howick, Auckland",-36.8951546,174.93349520000004
Hunters Corner Medical Centre,/doctors/gp/hunters-corner-medical-centre/,"26 Hoteo Avenue, Papatoetoe, Auckland",-36.9698139,174.8625032
Johns Lane Surgery,/doctors/gp/johns-lane-surgery/,"Cnr Pakuranga Road & Johns Lane, Pakuranga, Auckland",-36.9086991,174.8830452
Karaka Family Health,/doctors/gp/karaka-family-health/,"71 Hingaia Road, Karaka",-37.0740095,174.92298030000006
Kawakawa Bay Orere Health Clinic Inc,/doctors/gp/kawakawa-bay-orere-health-clinic-inc/,"Kawakawa-Orere Road, Kawakawa Bay",-36.9506133,175.170131
Leabank Health Centre,/doctors/gp/leabank-health-centre/,"100 Weymouth Road, Manurewa, Auckland",-37.0276997,174.8878926
M.P.S. Surgery Ltd,/doctors/gp/mps-surgery-ltd/,"44 Mason Avenue, Otahuhu, Auckland",-36.9448406,174.83969149999996
Mangere Bridge Surgery,/doctors/gp/mangere-bridge-surgery/,"29 Coronation Road, Mangere Bridge, Auckland",-36.9420574,174.78747180000005
Mangere Bridge Village Family Health Centre,/doctors/gp/mangere-bridge-village-family-health-centre/,Mangere Bridge Village Family Health Centre,-36.9430441,174.78771359999996
Mangere East Medical Centre,/doctors/gp/mangere-east-medical-centre/,"359 Massey Road, Mangere East, Auckland",-36.9665258,174.8251225
Mangere Family Doctors,/doctors/gp/mangere-family-doctors/,Mangere Family Doctors,-36.9567364,174.83386180000002
Mangere Health Centre,/doctors/gp/mangere-health-centre/,Mangere Health Centre,-36.971553,174.79868799999997
"Manukau Family Doctors, Accident & Medical",/doctors/gp/manukau-family-doctors-accident-medical/,"597 Great South Road, Manukau, Auckland",-36.9841389,174.87851920000003
Manukau Medical Associates,/doctors/gp/manukau-medical-associates/,Manukau Medical Associates,-36.9932452,174.88261609999995
Manurewa Family Doctors,/doctors/gp/manurewa-family-doctors/,"9 Halver Road, Manurewa, Auckland",-37.0220321,174.89874129999998
Manurewa Healthcare,/doctors/gp/manurewa-healthcare/,"210 Great South Road, Manurewa, Auckland",-37.0221625,174.89747820000002
Manurewa Medical Ltd,/doctors/gp/manurewa-medical-ltd/,"157 Great South Road, Manurewa, Auckland",-37.020321,174.89554199999998
Onecare Health,/doctors/gp/onecare-health/,"230 Great South Road, Papatoetoe, Auckland",-36.9705075,174.8620062
Onecare Health Otahuhu,/doctors/gp/onecare-health-otahuhu/,"121 Church Street, Otahuhu, Auckland",-36.9447479,174.84679719999997
Orere Point Health Clinic,/doctors/gp/orere-point-health-clinic/,"Orere Point Road, Orere Point",-36.9591612,175.2434505
Otahuhu College Health & Wellness Centre,/doctors/gp/otahuhu-college-health-wellness-centre/,"74-78 Mangere Road, Otahuhu, Auckland",-36.9518343,174.83932470000002
Otahuhu Family Doctors,/doctors/gp/otahuhu-family-doctors/,"29 Mason Avenue, Otahuhu, Auckland",-36.9441016,174.8405917
Otahuhu Family Medical Centre,/doctors/gp/otahuhu-family-medical-centre/,"3/507 Great South Road, Otahuhu, Auckland",-36.9340876,174.8515804
Otahuhu Family Practice,/doctors/gp/otahuhu-family-practice/,"115 Church Street, Otahuhu, Auckland",-36.9444107,174.8467297
Otahuhu Medical Clinic,/doctors/gp/otahuhu-medical-clinic/,"463 Great South Road, Otahuhu, Auckland",-36.9457784,174.8447281
Otara Family and Christian Health Centre,/doctors/gp/otara-family-and-christian-health-centre/,"120 East Tamaki Road, Otara, Auckland",-36.9620625,174.8731993
Otara Union Health,/doctors/gp/otara-union-health/,"100 Alexander Crescent, Otara, Auckland",-36.9586605,174.87442409999994
Pakuranga Medical Centre,/doctors/gp/pakuranga-medical-centre-1/,"17 William Roberts Road, Pakuranga, Auckland",-36.9126158,174.87367840000002
Papakura East Medical Centre,/doctors/gp/papakura-east-medical-centre/,"72 Clevedon Road, Papakura",-37.0585098,174.95303490000003
Papakura Family Health Centre,/doctors/gp/papakura-family-health-centre/,"343 Great South Road, Papakura",-37.06880339999999,174.94293259999995
Papakura Family Medical Practice,/doctors/gp/papakura-family-medical-practice/,"Corner of Elliot Street & Rushgreen Avenue, Pahurehure, Papakura",-37.0675897,174.9312409
Papakura Family Medicine Clinic Ltd,/doctors/gp/papakura-family-medicine-clinic-ltd/,"74 Great South Road, Papakura",-37.0569407,174.93946729999993
Papakura Marae Health Clinic,/doctors/gp/papakura-marae-health-clinic/,"29 Hunua Road, Papakura",-37.07020840000001,174.95916680000005
Papatoetoe Accident & Medical Centre,/doctors/gp/papatoetoe-accident-medical-centre/,"28 Hoteo Avenue, Papatoetoe, Auckland",-36.9696948,174.86272239999994
Papatoetoe Family Doctors,/doctors/gp/papatoetoe-family-doctors/,"15 Kolmar Road, Papatoetoe, Auckland",-36.9790483,174.85468790000004
Papatoetoe Medical Centre,/doctors/gp/papatoetoe-medical-centre/,"111 St George Street, Papatoetoe, Auckland",-36.9797129,174.85567420000007
Papatoetoe South Medical Centre,/doctors/gp/papatoetoe-south-medical-centre/,"580 Great South Road, Papatoetoe, Auckland",-36.95175499999999,174.8456764
Puhinui Medical Centre,/doctors/gp/puhinui-medical-centre/,"149 Puhinui Road, Papatoetoe, Auckland",-36.9870803,174.86063509999997
Pukekohe Family Doctors,/doctors/gp/pukekohe-family-doctors-1/,Pukekohe Family Doctors,-37.20754999999999,174.90910199999996
Pukekohe Family Health Care,/doctors/gp/pukekohe-family-health-care/,,,
Pukekohe Family Health Care - Accident & Medical,/doctors/gp/pukekohe-family-health-care-accident-medical/,"10 West Street, Pukekohe",-37.2010956,174.90045859999998
Pukekohe South Doctors,/doctors/gp/pukekohe-south-doctors/,"241 Manukau Road, Pukekohe",-37.2143371,174.91007360000003
Queen Street Medical Centre,/doctors/gp/queen-street-medical-centre/,"31 Queen Street, Otahuhu, Auckland",-36.9462635,174.84423449999997
Rangitoto Medical Ltd,/doctors/gp/rangitoto-medical-ltd/,"4 Rangitoto Road, Papatoetoe, Auckland",-36.9796011,174.8520155
Raukura Hauora O Tainui - Trust Health Care,/doctors/gp/raukura-hauora-o-tainui-trust-health-care/,"7 Hill Road, Manurewa, Auckland",-37.02049969999999,174.8971001
Rosehill Christian Medical Centre,/doctors/gp/rosehill-christian-medical-centre/,"2-4 Tairere Crescent, Rosehill, Papakura",-37.0798348,174.93692020000003
Roselands Doctors,/doctors/gp/roselands-doctors/,"13 O'Shannessey Street, Papakura",-37.0596396,174.94175199999995
Sandhu Doctors Ltd,/doctors/gp/sandhu-doctors-ltd/,"488 Great South Road, Papatoetoe, Auckland",-36.977737,174.87159080000004
Seddon Medical,/doctors/gp/seddon-medical/,"13A Hall Street, Pukekohe",-37.1994762,174.90587240000002
Sommerville Surgery,/doctors/gp/sommerville-surgery/,Sommerville Surgery,-36.9126333,174.92935869999997
Sore Throat Clinics - Auckland,/doctors/gp/sore-throat-clinics-auckland/,,,
South Auckland Chinese Medical Centre,/doctors/gp/south-auckland-chinese-medical-centre/,"271A Great South Road, Otahuhu, Auckland",-36.9416536,174.8412644
South Seas Healthcare,/doctors/gp/south-seas-healthcare/,"Fair Mall, Otara",-36.960653,174.8733198
Southpoint Family Doctors,/doctors/gp/southpoint-family-doctors/,"652 Great South Road, Manukau, Auckland",-36.9941017,174.87266
Takanini Family Health Care,/doctors/gp/takanini-family-health-care/,"106 Great South Road, Takanini",-37.03938659999999,174.91463369999997
Takanini Urgent Care,/doctors/gp/takanini-urgent-care/,"106 Great South Road, Takanini",-37.03938659999999,174.91463369999997
Te Manu Aute Whare Oranga,/doctors/gp/te-manu-aute-whare-oranga/,"81 Finlayson Avenue, Clendon Park, Auckland",-37.0252237,174.85729530000003
"The Doctors, Ti Rakau",/doctors/gp/the-doctors-ti-rakau/,"316 Ti Rakau Drive, Burswood, Auckland",-36.9265863,174.8978581
The Fono - South,/doctors/gp/the-fono-south/,"7 Halver Road, Manurewa, Auckland",-37.0221065,174.89861059999998
The Puhinui Doctors,/doctors/gp/the-puhinui-doctors/,"258 Puhinui Road, Papatoetoe, Auckland",-36.9909881,174.85121030000005
The Wood Street Doctors,/doctors/gp/the-wood-street-doctors/,"48 Wood Street, Papakura",-37.0648079,174.94151980000004
Tiakina Te Ora,/doctors/gp/tiakina-te-ora/,Tiakina Te Ora,-37.0615994,174.9396054
Tuakau Health Centre Ltd,/doctors/gp/tuakau-health-centre-ltd/,"55 George Street, Tuakau",-37.2605669,174.94621949999998
Turuki Health Care,/doctors/gp/turuki-health-care/,"Turuki Health Care, Mangere",-36.9720997,174.80350929999997
Vincent Street Family Doctors,/doctors/gp/vincent-street-family-doctors/,"80A Vincent Street, Howick, Auckland",-36.902487,174.92574650000006
Waiuku Health Centre,/doctors/gp/waiuku-health-centre/,Waiuku Health Centre,-37.2521607,174.72516470000005
Whanau Ora Community Clinic,/doctors/gp/whanau-ora-community-clinic/,"12 Lambie Drive, Papatoetoe, Auckland",-36.9858394,174.87240999999995
White Cross Accident & Medical - Auckland,/doctors/gp/white-cross-accident-medical-auckland/,,,
Wiri Family Doctors,/doctors/gp/wiri-family-doctors/,"10/792 Great South Road, Wiri, Auckland",-37.000885,174.88931389999993
All Care Family Medical Centre - Northcote,/doctors/gp/all-care-family-medical-centre-northcote/,"52 Pearn Crescent, Northcote, Auckland",-36.8007331,174.7462048
Archers Medical Centre,/doctors/gp/archers-medical-centre/,"130 Archers Road, Glenfield, Auckland",-36.7846042,174.73403789999998
Browns Bay Medical Centre,/doctors/gp/browns-bay-medical-centre/,"32 Anzac Road, Browns Bay, Auckland",-36.71704839999999,174.74610759999996
Coastcare Medical Centre - Birkenhead,/doctors/gp/coastcare-medical-centre-birkenhead/,"121 Birkenhead Avenue, Birkenhead, Auckland",-36.80736419999999,174.7258375
Country Medical Clinic,/doctors/gp/country-medical-clinic/,"76 Main Road, Kumeu",-36.7764113,174.5575693
Devonport Medical Centre,/doctors/gp/devonport-medical-centre/,"82 Lake Road, Narrow Neck, Auckland",-36.8129655,174.79262399999993
Dr Chas Luen - General Practitioner,/doctors/gp/dr-chas-luen-general-practitioner/,"36 Covil Avenue, Te Atatu South, Auckland",-36.8616113,174.6548501
Family Practice and Medical Centre,/doctors/gp/family-practice-and-medical-centre/,"437 Swanson Road, Ranui, Auckland",-36.8639808,174.6014255
Glenfield Family Doctors,/doctors/gp/glenfield-family-doctors/,"571 Glenfield Road, Glenfield, Auckland",-36.7704053,174.721913
Glenfield Medical Centre,/doctors/gp/glenfield-medical-centre/,Glenfield Medical Centre,-36.7802116,174.7214199
Green Bay Medical Centre,/doctors/gp/green-bay-medical-centre/,"70 Godley Road, Green Bay, Auckland",-36.9309337,174.6786315
Green Cross Clinic,/doctors/gp/green-cross-clinic/,"4 Auburn Street, Takapuna, Auckland",-36.7894679,174.7688818
HEALTH NEW LYNN,/doctors/gp/health-new-lynn/,Totara Health,-36.908843,174.6837183
Healthwise Beach Haven,/doctors/gp/healthwise-beach-haven/,"352 Rangatira Road, Beach Haven, Auckland",-36.79216640000001,174.68736769999998
Henderson Medical Centre,/doctors/gp/henderson-medical-centre-1/,Henderson Medical Centre,-36.8809061,174.6377966
Hobsonville Family Doctors,/doctors/gp/hobsonville-family-doctors/,"124 Hobsonville Road, Hobsonville",-36.797643249345164,174.6489179134369
Hobsonville Medical Centre,/doctors/gp/hobsonville-medical-centre/,"42 Suncrest Drive, West Harbour, Auckland",-36.80449650000001,174.6391506
Hobsonville Point Medical Centre,/doctors/gp/hobsonville-point-medical-centre/,"3A/160 Hobsonville Point Road, Hobsonville, Auckland",-36.79283547420568,174.6609363557218
Huapai Family Medical Practice,/doctors/gp/huapai-family-medical-practice/,"124 Matua Road, Huapai, Kumeu",-36.76474849999999,174.53988319999996
Integrated Medical Centre,/doctors/gp/integrated-medical-centre/,"511 South Titirangi Road, Titirangi, Auckland",-36.938972,174.6549189
Kaipara Medical Centre,/doctors/gp/kaipara-medical-centre/,"53-65 Commercial Road, Helensville, Auckland",-36.6753989,174.4513862
Kelston Medical Centre,/doctors/gp/kelston-medical-centre/,"8 Archibald Road, Kelston, Auckland",-36.90562870000001,174.6635986
Kumeu Village Medical Centre,/doctors/gp/kumeu-village-medical-centre/,"92 Main Road, Kumeu",-36.7757948,174.5555983
Lincoln Medical Clinic,/doctors/gp/lincoln-medical-clinic/,"96 Lincoln Road, Henderson, Auckland",-36.8667945,174.6282681
Lynnmall Medical Centre,/doctors/gp/lynnmall-medical-centre/,"Lynnmall City, New Lynn",-36.9078599,174.68520850000004
Massey Medical Centre,/doctors/gp/massey-medical-centre/,"394 Don Buck Road, Massey, Auckland",-36.834938,174.6023287
McLaren Park Medical Centre,/doctors/gp/mclaren-park-medical-centre/,"83 Bruce McLaren Road, Henderson, Auckland",-36.8966881,174.6259509
Milford Family Medical Centre,/doctors/gp/milford-family-medical-centre/,"50 East Coast Road, Milford, Auckland",-36.7690241,174.75887510000007
Onewa Doctors,/doctors/gp/onewa-doctors/,"225 Onewa Road, Birkenhead, Auckland",-36.8096548,174.7305366
Orewa Medical Centre,/doctors/gp/orewa-medical-centre/,"8d Tamariki Avenue, Orewa",-36.587997,174.695168
Palomino Medical Centre,/doctors/gp/palomino-medical-centre/,"138 Sturges Road, Henderson, Auckland",-36.8830215,174.61523239999997
Peninsula Medical Centre,/doctors/gp/peninsula-medical-centre/,Peninsula Medical Centre,-36.839005,174.651602
Ratanui Medical Centre,/doctors/gp/ratanui-medical-centre/,Ratanui Medical Centre,-36.8612396,174.6294401
Rathgar Medical & Surgical Centre,/doctors/gp/rathgar-medical-surgical-centre/,"132A Rathgar Road, Henderson, Auckland",-36.8617109,174.62140090000003
Royal Heights Medical Centre,/doctors/gp/royal-heights-medical-centre/,"138 Royal Road, Massey, Auckland",-36.8312484,174.6060709
Silver Fern Medical Centre,/doctors/gp/silver-fern-medical-centre/,"The Triangle, Waimauku",-36.7666421,174.49526820000006
Sore Throat Clinics - Auckland,/doctors/gp/sore-throat-clinics-auckland/,,,
Swanson Medical Centre,/doctors/gp/swanson-medical-centre/,"714 Swanson Road, Swanson, Auckland",-36.8660651,174.5793061
T.L. Care,/doctors/gp/tl-care/,"296 Te Atatu Road, Te Atatu South, Auckland",-36.86236510000001,174.64878780000004
Takapuna Healthcare,/doctors/gp/takapuna-healthcare/,"25 Bracken Avenue, Takapuna, Auckland",-36.7919068,174.7712171
Te Atatu South Medical Centre,/doctors/gp/te-atatu-south-medical-centre/,"259 Te Atatu Road, Te Atatu South, Auckland",-36.8634879,174.6488331
Te Puna Hauora o te Raki Paewhenua - Health & Social Services,/doctors/gp/te-puna-hauora-o-te-raki-paewhenua-health/,,,
The Doctors Golf Road,/doctors/gp/the-doctors-golf-road/,"168 Golf Road, Titirangi, Auckland",-36.9263719,174.6713174
"The Doctors, New Lynn",/doctors/gp/the-doctors-new-lynn/,"The Doctors, New Lynn",-36.9048545,174.68445129999998
The Fono - West,/doctors/gp/the-fono-west/,"411 Great North Road, Henderson, Auckland",-36.8893801,174.6973938
The Fono - West Central,/doctors/gp/the-fono-west-central/,"297 Blockhouse Bay Road, Avondale, Auckland",-36.9082507,174.7014468
Titirangi Medical Centre Ltd.,/doctors/gp/titirangi-medical-centre-ltd/,"2 Rangiwai Road, Titirangi, Auckland",-36.93828999999999,174.6583294
Travel Clinic North Shore,/doctors/gp/travel-clinic-north-shore/,"101 Apollo Drive, Rosedale, Auckland",-36.73674889999999,174.72786210000004
Upper Harbour Medical Centre,/doctors/gp/upper-harbour-medical-centre/,"393 Hobsonville Road, Hobsonville, Auckland",-36.7991877,174.6464309
Valley Medical Centre,/doctors/gp/valley-medical-centre/,"149 Henderson Valley Road, Auckland",-36.8924481,174.62078539999993
Waimauku Doctors,/doctors/gp/waimauku-doctors/,"8 Waimauku Station Road, Waimauku",-36.7681204,174.492878
Waitakere Union Health,/doctors/gp/waitakere-union-health/,"55-75 Lincoln Road, Henderson, Auckland",-36.86967780000001,174.62989649999997
West Auckland Healthcare - Lincoln Road Medical Centre,/doctors/gp/west-auckland-healthcare-lincoln-road-medical/,"131 Lincoln Road, Henderson, Auckland",-36.8646275,174.63017360000003
West Auckland Healthcare - Ranui Medical Centre,/doctors/gp/west-auckland-healthcare-ranui-medical-centre/,"421 Swanson Road, Ranui, Auckland",-36.8637145,174.60274890000005
West Auckland Healthcare - Wai Health Clinic,/doctors/gp/west-auckland-healthcare-wai-health-clinic/,"6-8 Pioneer Street, Henderson, Auckland",-36.88107823984726,174.63268518447876
West Harbour Medical Centre,/doctors/gp/west-harbour-medical-centre/,"86 Oreil Avenue, West Harbour, Auckland",-36.8230174,174.6239954
Westgate Medical Centre,/doctors/gp/westgate-medical-centre-1/,Westgate Medical Centre,-36.819662579680994,174.61414575576782
Westview Medical Centre,/doctors/gp/westview-medical-centre/,"5 Glendale Road, Glen Eden, Auckland",-36.91035369999999,174.64981710000006
White Cross Accident & Medical - Auckland,/doctors/gp/white-cross-accident-medical-auckland/,,,
